KMCI 201753Z 30015G22KT 9SM OVC016 12/09 A2987
