KMCI 201740Z 31012G19KT 9SM OVC014 12/09 A2986
KMCI 201753Z 30015G22KT 9SM OVC016 12/09 A2987
KMCI 201753Z 30015G22KT 9SM OVC016 12/09 A2987
KMCI 201753Z 30015G22KT 9SM OVC016 12/09 A2987
